NORAD_CAT_ID,OBJECT_NAME,OBJECT_TYPE,EPOCH,MEAN_MOTION,ECCENTRICITY,INCLINATION,RA_OF_ASC_NODE,ARG_OF_PERICENTER,MEAN_ANOMALY,BSTAR,MEAN_MOTION_DOT,MEAN_MOTION_DDOT,TLE_LINE0,TLE_LINE1,TLE_LINE2,SEMIMAJOR_AXIS,PERIOD,APOGEE,PERIGEE,DECAYED
56791.0,STARLINK-5977,PAYLOAD,2024-04-22 19:17:30,14.98329741,0.0002709,70.0003,273.7194,260.6399,99.4454,-7.3863e-05,-9.74e-06,0.0,0 STARLINK-5977,1 56791U 23078AA  24113.80382258 -.00000974  00000-0 -73863-4 0  9998,2 56791  70.0003 273.7194 0002709 260.6399  99.4454 14.98329741 49945,6950.194,96.107,573.941,570.176,0.0
56791.0,STARLINK-5977,PAYLOAD,2024-04-23 12:54:58,14.98323605,0.0002685,70.0004,271.8678,258.929,101.1567,8.2532e-05,8.92e-06,0.0,0 STARLINK-5977,1 56791U 23078AA  24114.53818229  .00000892  00000-0  82532-4 0  9991,2 56791  70.0004 271.8678 0002685 258.9290 101.1567 14.98323605 50317,6950.213,96.107,573.944,570.212,0.0
56791.0,STARLINK-5977,PAYLOAD,2024-04-23 14:31:07,14.98323944,0.0002663,70.0004,271.6994,259.0177,101.0682,8.8393e-05,9.62e-06,0.0,0 STARLINK-5977,1 56791U 23078AA  24114.60494218  .00000962  00000-0  88393-4 0  9996,2 56791  70.0004 271.6994 0002663 259.0177 101.0682 14.98323944 50063,6950.212,96.107,573.927,570.226,0.0
56791.0,STARLINK-5977,PAYLOAD,2024-04-23 20:55:39,14.98327855,0.0002615,70.0006,271.0261,260.616,99.4704,0.00012708,1.424e-05,0.0,0 STARLINK-5977,1 56791U 23078AA  24114.87197943  .00001424  00000-0  12708-3 0  9990,2 56791  70.0006 271.0261 0002615 260.6160  99.4704 14.98327855 50108,6950.2,96.107,573.882,570.247,0.0
56791.0,STARLINK-5977,PAYLOAD,2024-04-24 12:56:59,14.98328793,0.0002599,70.0009,269.3434,267.958,92.1281,8.3218e-05,9e-06,0.0,0 STARLINK-5977,1 56791U 23078AA  24115.53958001  .00000900  00000-0  83218-4 0  9997,2 56791  70.0009 269.3434 0002599 267.9580  92.1281 14.98328793 50461,6950.197,96.107,573.868,570.255,0.0
56791.0,STARLINK-5977,PAYLOAD,2024-04-24 20:57:41,14.98317662,0.0002544,70.0009,268.5013,253.8411,106.2468,-6.3819e-05,-8.54e-06,0.0,0 STARLINK-5977,1 56791U 23078AA  24115.87339159 -.00000854  00000-0 -63819-4 0  9996,2 56791  70.0009 268.5013 0002544 253.8411 106.2468 14.98317662 50515,6950.231,96.108,573.864,570.328,0.0
56791.0,STARLINK-5977,PAYLOAD,2024-04-25 12:59:01,14.98326833,0.0002794,70.0004,266.8174,261.6512,98.4331,-5.4334e-05,-7.41e-06,0.0,0 STARLINK-5977,1 56791U 23078AA  24116.54098782 -.00000741  00000-0 -54334-4 0  9992,2 56791  70.0004 266.8174 0002794 261.6512  98.4331 14.98326833 50617,6950.203,96.107,574.01,570.126,0.0
56791.0,STARLINK-5977,PAYLOAD,2024-04-25 14:35:09,14.98327382,0.000285,70.0001,266.6486,265.5002,94.5831,-5.5289e-05,-7.53e-06,0.0,0 STARLINK-5977,1 56791U 23078AA  24116.60774780 -.00000753  00000-0 -55289-4 0  9991,2 56791  70.0001 266.6486 0002850 265.5002  94.5831 14.98327382 50362,6950.201,96.107,574.047,570.085,0.0
56791.0,STARLINK-5977,PAYLOAD,2024-04-25 19:23:33,14.98330693,0.0002637,70.0009,266.1448,258.238,101.8484,2.7478e-06,-6e-07,0.0,0 STARLINK-5977,1 56791U 23078AA  24116.80802423 -.00000060  00000-0  27478-5 0  9999,2 56791  70.0009 266.1448 0002637 258.2380 101.8484 14.98330693 50392,6950.191,96.107,573.889,570.223,0.0
56791.0,STARLINK-5977,PAYLOAD,2024-04-26 13:01:02,14.98321706,0.0002685,70.001,264.2942,251.672,108.4147,0.0001011,1.113e-05,0.0,0 STARLINK-5977,1 56791U 23078AA  24117.54238652  .00001113  00000-0  10110-3 0  9990,2 56791  70.0010 264.2942 0002685 251.6720 108.4147 14.98321706 50765,6950.219,96.108,573.95,570.217,0.0
56791.0,STARLINK-5977,PAYLOAD,2024-04-26 14:37:10,14.98321906,0.000268,70.001,264.126,251.322,108.7648,0.0001017,1.12e-05,0.0,0 STARLINK-5977,1 56791U 23078AA  24117.60914672  .00001120  00000-0  10170-3 0  9994,2 56791  70.0010 264.1260 0002680 251.3220 108.7648 14.98321906 50518,6950.218,96.108,573.946,570.22,0.0
56791.0,STARLINK-5977,PAYLOAD,2024-04-26 16:13:17,14.98346136,0.000234,69.9998,263.9569,261.2897,98.7997,-0.00016875,-2.107e-05,0.0,0 STARLINK-5977,1 56791U 23078AA  24117.67590059 -.00002107  00000-0 -16875-3 0  9996,2 56791  69.9998 263.9569 0002340 261.2897  98.7997 14.98346136 50788,6950.143,96.106,573.634,570.382,0.0
56791.0,STARLINK-5977,PAYLOAD,2024-04-26 19:25:34,14.98330921,0.000259,70.0001,263.6207,260.0613,100.0254,0.00013084,1.469e-05,0.0,0 STARLINK-5977,1 56791U 23078AA  24117.80942149  .00001469  00000-0  13084-3 0  9999,2 56791  70.0001 263.6207 0002590 260.0613 100.0254 14.98330921 50544,6950.19,96.107,573.855,570.255,0.0
56791.0,STARLINK-5977,PAYLOAD,2024-04-27 03:26:14,14.98329671,0.0002801,70.0003,262.7767,269.1342,90.9496,9.3098e-05,1.018e-05,0.0,0 STARLINK-5977,1 56791U 23078AA  24118.14322371  .00001018  00000-0  93098-4 0  9990,2 56791  70.0003 262.7767 0002801 269.1342  90.9496 14.98329671 50850,6950.194,96.107,574.006,570.112,0.0
56791.0,STARLINK-5977,PAYLOAD,2024-04-27 14:39:10,14.98335257,0.0002954,70.0,261.5987,270.1568,89.9253,3.5771e-05,3.34e-06,0.0,0 STARLINK-5977,1 56791U 23078AA  24118.61054058  .00000334  00000-0  35771-4 0  9990,2 56791  70.0000 261.5987 0002954 270.1568  89.9253 14.98335257 50664,6950.177,96.107,574.095,569.989,0.0
56791.0,STARLINK-5977,PAYLOAD,2024-04-27 19:27:34,14.98341213,0.000289,70.0002,261.093,268.4729,91.6099,9.6727e-05,1.062e-05,0.0,0 STARLINK-5977,1 56791U 23078AA  24118.81081367  .00001062  00000-0  96727-4 0  9992,2 56791  70.0002 261.0930 0002890 268.4729  91.6099 14.98341213 50956,6950.158,96.106,574.032,570.015,0.0
56791.0,STARLINK-5977,PAYLOAD,2024-04-28 13:05:04,14.98316654,0.0002576,70.0017,259.2431,273.1614,86.925,-6.2581e-05,-8.39e-06,0.0,0 STARLINK-5977,1 56791U 23078AA  24119.54519467 -.00000839  00000-0 -62581-4 0  9994,2 56791  70.0017 259.2431 0002576 273.1614  86.9250 14.98316654 51064,6950.234,96.108,573.89,570.309,0.0
56791.0,STARLINK-5977,PAYLOAD,2024-04-28 14:41:12,14.98347233,0.0002328,70.0015,259.0744,273.5359,86.5534,-0.00055316,-6.69e-05,0.0,0 STARLINK-5977,1 56791U 23078AA  24119.61195003 -.00006690  00000-0 -55316-3 0  9996,2 56791  70.0015 259.0744 0002328 273.5359  86.5534 14.98347233 50812,6950.14,96.106,573.623,570.387,0.0
56791.0,STARLINK-5977,PAYLOAD,2024-04-28 19:29:36,14.98353814,0.0002583,69.9998,258.5687,268.6872,91.3991,-0.00058938,-7.122e-05,0.0,0 STARLINK-5977,1 56791U 23078AA  24119.81222386 -.00007122  00000-0 -58938-3 0  9997,2 56791  69.9998 258.5687 0002583 268.6872  91.3991 14.98353814 51103,6950.119,96.105,573.779,570.189,0.0
56791.0,STARLINK-5977,PAYLOAD,2024-04-29 01:54:08,14.9832898,0.0002891,70.0001,257.8957,271.7338,88.349,-7.4749e-05,-9.85e-06,0.0,0 STARLINK-5977,1 56791U 23078AA  24120.07926829 -.00000985  00000-0 -74749-4 0  9999,2 56791  70.0001 257.8957 0002891 271.7338  88.3490 14.98328980 51147,6950.196,96.107,574.07,570.052,0.0
56791.0,STARLINK-5977,PAYLOAD,2024-04-29 14:43:13,14.98331874,0.0002913,70.0,256.5487,271.9017,88.1808,-3.2136e-05,-4.76e-06,0.0,0 STARLINK-5977,1 56791U 23078AA  24120.61334541 -.00000476  00000-0 -32136-4 0  9992,2 56791  70.0000 256.5487 0002913 271.9017  88.1808 14.98331874 50967,6950.187,96.107,574.077,570.028,0.0
56791.0,STARLINK-5977,PAYLOAD,2024-04-29 19:31:36,14.98336903,0.0002964,70.0,256.0441,271.1405,88.9414,2.8822e-05,2.51e-06,0.0,0 STARLINK-5977,1 56791U 23078AA  24120.81361966  .00000251  00000-0  28822-4 0  9991,2 56791  70.0000 256.0441 0002964 271.1405  88.9414 14.98336903 51253,6950.172,96.107,574.097,569.977,0.0
56791.0,STARLINK-5977,PAYLOAD,2024-04-30 11:32:57,14.98326846,0.0002685,70.0004,254.3609,266.8723,93.2129,0.00013262,1.49e-05,0.0,0 STARLINK-5977,1 56791U 23078AA  24121.48122281  .00001490  00000-0  13262-3 0  9997,2 56791  70.0004 254.3609 0002685 266.8723  93.2129 14.98326846 51356,6950.203,96.107,573.934,570.202,0.0
56791.0,STARLINK-5977,PAYLOAD,2024-04-30 14:45:13,14.98329209,0.0002804,70.0,254.0242,268.8628,91.221,0.00013019,1.461e-05,0.0,0 STARLINK-5977,1 56791U 23078AA  24121.61474144  .00001461  00000-0  13019-3 0  9998,2 56791  70.0000 254.0242 0002804 268.8628  91.2210 14.98329209 51110,6950.195,96.107,574.009,570.112,0.0
56791.0,STARLINK-5977,PAYLOAD,2024-04-30 17:57:29,14.98329551,0.0002864,70.0,253.6875,268.7975,91.2855,0.0001273,1.426e-05,0.0,0 STARLINK-5977,1 56791U 23078AA  24121.74826119  .00001426  00000-0  12730-3 0  9995,2 56791  70.0000 253.6875 0002864 268.7975  91.2855 14.98329551 51134,6950.194,96.107,574.05,570.069,0.0
56791.0,STARLINK-5977,PAYLOAD,2024-05-01 14:47:14,14.98332395,0.0002777,70.0004,251.4999,268.0012,92.0829,-1.1372e-05,-2.29e-06,0.0,0 STARLINK-5977,1 56791U 23078AA  24122.61614306 -.00000229  00000-0 -11372-4 0  9999,2 56791  70.0004 251.4999 0002777 268.0012  92.0829 14.98332395 51263,6950.185,96.107,573.981,570.12,0.0
56791.0,STARLINK-5977,PAYLOAD,2024-05-01 17:59:31,14.98330016,0.0002891,70.0001,251.1629,268.9172,91.1656,-4.3553e-05,-6.13e-06,0.0,0 STARLINK-5977,1 56791U 23078AA  24122.74966504 -.00000613  00000-0 -43553-4 0  9996,2 56791  70.0001 251.1629 0002891 268.9172  91.1656 14.98330016 51547,6950.193,96.107,574.067,570.049,0.0
56791.0,STARLINK-5977,PAYLOAD,2024-05-02 14:49:15,14.98334635,0.0003049,69.9999,248.9744,270.6924,89.3886,-2.2639e-05,-3.63e-06,0.0,0 STARLINK-5977,1 56791U 23078AA  24123.61753999 -.00000363  00000-0 -22639-4 0  9999,2 56791  69.9999 248.9744 0003049 270.6924  89.3886 14.98334635 51414,6950.179,96.107,574.163,569.924,0.0
56791.0,STARLINK-5977,PAYLOAD,2024-05-02 18:01:31,14.9833594,0.0003037,70.0,248.6378,270.9649,89.1162,-5.906e-06,-1.63e-06,0.0,0 STARLINK-5977,1 56791U 23078AA  24123.75105834 -.00000163  00000-0 -59060-5 0  9990,2 56791  70.0000 248.6378 0003037 270.9649  89.1162 14.98335940 51699,6950.175,96.107,574.15,569.929,0.0
56791.0,STARLINK-5977,PAYLOAD,2024-05-03 13:15:09,14.98316426,0.0003202,70.0001,246.6181,269.1892,90.89,-0.00013128,-1.659e-05,0.0,0 STARLINK-5977,1 56791U 23078AA  24124.55219378 -.00001659  00000-0 -13128-3 0  9992,2 56791  70.0001 246.6181 0003202 269.1892  90.8900 14.98316426 51815,6950.235,96.108,574.325,569.874,0.0
